NORAD_CAT_ID,OBJECT_NAME,OBJECT_TYPE,EPOCH,MEAN_MOTION,ECCENTRICITY,INCLINATION,RA_OF_ASC_NODE,ARG_OF_PERICENTER,MEAN_ANOMALY,BSTAR,MEAN_MOTION_DOT,MEAN_MOTION_DDOT,TLE_LINE0,TLE_LINE1,TLE_LINE2,SEMIMAJOR_AXIS,PERIOD,APOGEE,PERIGEE,DECAYED
53037.0,STARLINK-4153,PAYLOAD,2023-09-18 21:22:24,15.08846867,0.0001377,53.216,166.9446,89.2622,270.8528,0.00016893,2.402e-05,0.0,0 STARLINK-4153,1 53037U 22076BD  23261.89056619  .00002402  00000-0  16893-3 0  9991,2 53037  53.2160 166.9446 0001377  89.2622 270.8528 15.08846867 66838,6917.859,95.437,540.677,538.772,0.0
53037.0,STARLINK-4153,PAYLOAD,2023-09-19 02:08:34,15.08856638,0.0001443,53.2162,166.0531,76.0247,284.0906,0.00053035,8.166e-05,0.0,0 STARLINK-4153,1 53037U 22076BD  23262.08928397  .00008166  00000-0  53035-3 0  9996,2 53037  53.2162 166.0531 0001443  76.0247 284.0906 15.08856638 67326,6917.83,95.437,540.693,538.696,0.0
53037.0,STARLINK-4153,PAYLOAD,2023-09-20 03:34:43,15.08874192,0.0001428,53.2168,161.2946,86.5755,273.54,0.0010642,0.00016705,0.0,0 STARLINK-4153,1 53037U 22076BD  23263.14911345  .00016705  00000-0  10642-2 0  9993,2 53037  53.2168 161.2946 0001428  86.5755 273.5400 15.08874192 67486,6917.776,95.435,540.629,538.653,0.0
53037.0,STARLINK-4153,PAYLOAD,2023-09-20 09:56:16,15.08835506,0.0001958,53.2161,160.1029,93.055,267.0666,-0.00022742,-3.905e-05,0.0,0 STARLINK-4153,1 53037U 22076BD  23263.41408071 -.00003905  00000-0 -22742-3 0  9995,2 53037  53.2161 160.1029 0001958  93.0550 267.0666 15.08835506 67526,6917.894,95.438,541.114,538.405,0.0
53037.0,STARLINK-4153,PAYLOAD,2023-09-20 21:03:59,15.08810407,0.0001837,53.2162,158.0269,129.9724,230.143,-0.00058964,-9.652e-05,0.0,0 STARLINK-4153,1 53037U 22076BD  23263.87777015 -.00009652  00000-0 -58964-3 0  9992,2 53037  53.2162 158.0269 0001837 129.9724 230.1430 15.08810407 67137,6917.971,95.439,541.107,538.565,0.0
53037.0,STARLINK-4153,PAYLOAD,2023-09-21 01:50:09,15.08810087,0.0001631,53.2162,157.1353,121.8752,238.2399,3.4225e-06,-2.34e-06,0.0,0 STARLINK-4153,1 53037U 22076BD  23264.07649622 -.00000234  00000-0  34225-5 0  9999,2 53037  53.2162 157.1353 0001631 121.8752 238.2399 15.08810087 67626,6917.972,95.439,540.965,538.709,0.0
53037.0,STARLINK-4153,PAYLOAD,2023-09-21 03:25:32,15.08814082,0.0001733,53.2171,156.8367,122.7366,237.3794,0.00027591,4.103e-05,0.0,0 STARLINK-4153,1 53037U 22076BD  23264.14273699  .00004103  00000-0  27591-3 0  9998,2 53037  53.2171 156.8367 0001733 122.7366 237.3794 15.08814082 67179,6917.96,95.439,541.023,538.626,0.0
53037.0,STARLINK-4153,PAYLOAD,2023-09-21 20:54:47,15.08831811,7.95e-05,53.2164,153.5634,140.998,219.107,0.0008674,0.00013541,0.0,0 STARLINK-4153,1 53037U 22076BD  23264.87138277  .00013541  00000-0  86740-3 0  9997,2 53037  53.2164 153.5634 0000795 140.9980 219.1070 15.08831811 67289,6917.905,95.438,540.32,539.22,0.0
53037.0,STARLINK-4153,PAYLOAD,2023-09-22 03:16:19,15.08853813,0.0001324,53.2157,152.3745,125.369,234.7426,0.0011065,0.00017372,0.0,0 STARLINK-4153,1 53037U 22076BD  23265.13633860  .00017372  00000-0  11065-2 0  9998,2 53037  53.2157 152.3745 0001324 125.3690 234.7426 15.08853813 67784,6917.838,95.437,540.619,538.787,0.0
53037.0,STARLINK-4153,PAYLOAD,2023-09-22 20:45:33,15.08862922,0.0001401,53.2162,149.1021,119.6743,240.4389,0.00060062,9.29e-05,0.0,0 STARLINK-4153,1 53037U 22076BD  23265.86497556  .00009290  00000-0  60062-3 0  9990,2 53037  53.2162 149.1021 0001401 119.6743 240.4389 15.08862922 67437,6917.81,95.436,540.645,538.706,0.0
53037.0,STARLINK-4153,PAYLOAD,2023-09-22 23:56:19,15.08868707,0.0001335,53.216,148.5069,120.6231,239.4893,0.00079202,0.00012349,0.0,0 STARLINK-4153,1 53037U 22076BD  23265.99745307  .00012349  00000-0  79202-3 0  9999,2 53037  53.2160 148.5069 0001335 120.6231 239.4893 15.08868707 67918,6917.793,95.436,540.581,538.734,0.0
53037.0,STARLINK-4153,PAYLOAD,2023-09-24 01:22:30,15.0885414,0.0001326,53.2165,143.7487,107.0844,253.0293,0.00068871,0.00010694,0.0,0 STARLINK-4153,1 53037U 22076BD  23267.05729359  .00010694  00000-0  68871-3 0  9998,2 53037  53.2165 143.7487 0001326 107.0844 253.0293 15.08854140 68073,6917.837,95.437,540.619,538.785,0.0
53037.0,STARLINK-4153,PAYLOAD,2023-09-24 20:27:08,15.08840508,0.0001226,53.2168,140.1823,108.2119,251.9006,0.00085004,0.00013266,0.0,0 STARLINK-4153,1 53037U 22076BD  23267.85217792  .00013266  00000-0  85004-3 0  9994,2 53037  53.2168 140.1823 0001226 108.2119 251.9006 15.08840508 68193,6917.879,95.438,540.592,538.896,0.0
53037.0,STARLINK-4153,PAYLOAD,2023-09-24 22:02:31,15.08840518,0.0001303,53.2179,139.8866,86.7298,273.3843,0.00061455,9.506e-05,0.0,0 STARLINK-4153,1 53037U 22076BD  23267.91841910  .00009506  00000-0  61455-3 0  9992,2 53037  53.2179 139.8866 0001303  86.7298 273.3843 15.08840518 67749,6917.879,95.438,540.645,538.842,0.0
53037.0,STARLINK-4153,PAYLOAD,2023-09-25 09:10:13,15.0885549,0.0001427,53.2175,137.8023,88.2255,271.8901,0.00094412,0.00014776,0.0,0 STARLINK-4153,1 53037U 22076BD  23268.38209665  .00014776  00000-0  94412-3 0  9993,2 53037  53.2175 137.8023 0001427  88.2255 271.8901 15.08855490 67816,6917.833,95.437,540.685,538.711,0.0
53037.0,STARLINK-4153,PAYLOAD,2023-09-25 20:17:54,15.08854394,0.0001408,53.2171,135.7205,98.9703,261.1449,0.0005258,8.093e-05,0.0,0 STARLINK-4153,1 53037U 22076BD  23268.84577350  .00008093  00000-0  52580-3 0  9998,2 53037  53.2171 135.7205 0001408  98.9703 261.1449 15.08854394 68346,6917.836,95.437,540.675,538.727,0.0
53037.0,STARLINK-4153,PAYLOAD,2023-09-25 21:53:17,15.0885687,0.0001455,53.2174,135.423,99.5912,260.5244,0.00057476,8.875e-05,0.0,0 STARLINK-4153,1 53037U 22076BD  23268.91201245  .00008875  00000-0  57476-3 0  9990,2 53037  53.2174 135.4230 0001455  99.5912 260.5244 15.08856870 67891,6917.829,95.436,540.7,538.687,0.0
53037.0,STARLINK-4153,PAYLOAD,2023-09-26 01:04:03,15.088602,0.0001479,53.2178,134.8278,100.6184,259.4974,0.00060291,9.326e-05,0.0,0 STARLINK-4153,1 53037U 22076BD  23269.04449042  .00009326  00000-0  60291-3 0  9995,2 53037  53.2178 134.8278 0001479 100.6184 259.4974 15.08860200 67913,6917.819,95.436,540.707,538.661,0.0
53037.0,STARLINK-4153,PAYLOAD,2023-09-26 20:08:41,15.08857191,0.0001532,53.2171,131.2551,114.9345,245.1806,0.00033055,4.979e-05,0.0,0 STARLINK-4153,1 53037U 22076BD  23269.83936426  .00004979  00000-0  33055-3 0  9996,2 53037  53.2171 131.2551 0001532 114.9345 245.1806 15.08857191 68493,6917.828,95.436,540.753,538.633,0.0
53037.0,STARLINK-4153,PAYLOAD,2023-09-27 07:16:23,15.08839506,0.0001466,53.2169,129.1731,77.1608,282.9548,-0.00010517,-1.961e-05,0.0,0 STARLINK-4153,1 53037U 22076BD  23270.30304895 -.00001961  00000-0 -10517-3 0  9997,2 53037  53.2169 129.1731 0001466  77.1608 282.9548 15.08839506 68564,6917.882,95.438,540.761,538.733,0.0
53037.0,STARLINK-4153,PAYLOAD,2023-09-27 19:59:29,15.0882087,0.0001546,53.2174,126.8003,107.1368,252.9793,-0.00033673,-5.64e-05,0.0,0 STARLINK-4153,1 53037U 22076BD  23270.83298057 -.00005640  00000-0 -33673-3 0  9993,2 53037  53.2174 126.8003 0001546 107.1368 252.9793 15.08820870 68644,6917.939,95.439,540.873,538.734,0.0
53037.0,STARLINK-4153,PAYLOAD,2023-09-28 00:45:38,15.08823238,0.0001574,53.2171,125.9086,112.6403,247.4756,-0.00024201,-4.136e-05,0.0,0 STARLINK-4153,1 53037U 22076BD  23271.03170134 -.00004136  00000-0 -24201-3 0  9997,2 53037  53.2171 125.9086 0001574 112.6403 247.4756 15.08823238 68216,6917.932,95.439,540.886,538.708,0.0
53037.0,STARLINK-4153,PAYLOAD,2023-09-28 18:14:53,15.08836896,0.0001479,53.2168,122.6399,111.2392,248.8758,0.00019617,2.835e-05,0.0,0 STARLINK-4153,1 53037U 22076BD  23271.76034365  .00002835  00000-0  19617-3 0  9999,2 53037  53.2168 122.6399 0001479 111.2392 248.8758 15.08836896 68782,6917.89,95.438,540.778,538.732,0.0
53037.0,STARLINK-4153,PAYLOAD,2023-09-28 19:50:16,15.08839175,0.0001472,53.2168,122.3426,111.9967,248.1181,0.00026287,3.898e-05,0.0,0 STARLINK-4153,1 53037U 22076BD  23271.82658356  .00003898  00000-0  26287-3 0  9999,2 53037  53.2168 122.3426 0001472 111.9967 248.1181 15.08839175 68335,6917.883,95.438,540.766,538.73,0.0
53037.0,STARLINK-4153,PAYLOAD,2023-09-29 00:36:26,15.08845774,0.000157,53.2171,121.4492,116.3203,243.7951,0.00060657,9.38e-05,0.0,0 STARLINK-4153,1 53037U 22076BD  23272.02530401  .00009380  00000-0  60657-3 0  9993,2 53037  53.2171 121.4492 0001570 116.3203 243.7951 15.08845774 68825,6917.863,95.437,540.814,538.642,0.0
53037.0,STARLINK-4153,PAYLOAD,2023-09-29 18:05:40,15.08852748,0.0001526,53.2166,118.18,118.2356,241.879,0.00050907,7.826e-05,0.0,0 STARLINK-4153,1 53037U 22076BD  23272.75394272  .00007826  00000-0  50907-3 0  9997,2 53037  53.2166 118.1800 0001526 118.2356 241.8790 15.08852748 68937,6917.841,95.437,540.762,538.651,0.0
53037.0,STARLINK-4153,PAYLOAD,2023-09-29 19:41:03,15.08852963,0.0001277,53.2158,117.8825,109.9479,250.1651,0.00049117,7.54e-05,0.0,0 STARLINK-4153,1 53037U 22076BD  23272.82018248  .00007540  00000-0  49117-3 0  9995,2 53037  53.2158 117.8825 0001277 109.9479 250.1651 15.08852963 68485,6917.841,95.437,540.589,538.822,0.0
53037.0,STARLINK-4153,PAYLOAD,2023-09-30 06:48:45,15.08850206,0.0001213,53.2149,115.7974,81.6663,278.4466,0.0002556,3.783e-05,0.0,0 STARLINK-4153,1 53037U 22076BD  23273.28386127  .00003783  00000-0  25560-3 0  9991,2 53037  53.2149 115.7974 0001213  81.6663 278.4466 15.08850206 69013,6917.849,95.437,540.553,538.875,0.0
53037.0,STARLINK-4153,PAYLOAD,2023-09-30 17:56:27,15.08834235,0.0001254,53.2144,113.7179,91.0238,269.0897,-0.00012633,-2.298e-05,0.0,0 STARLINK-4153,1 53037U 22076BD  23273.74754575 -.00002298  00000-0 -12633-3 0  9997,2 53037  53.2144 113.7179 0001254  91.0238 269.0897 15.08834235 69086,6917.898,95.438,540.631,538.896,0.0
53037.0,STARLINK-4153,PAYLOAD,2023-10-01 06:39:32,15.08844146,0.000123,53.2153,111.337,87.6239,272.4894,0.00014979,2.097e-05,0.0,0 STARLINK-4153,1 53037U 22076BD  23274.27746423  .00002097  00000-0  14979-3 0  9999,2 53037  53.2153 111.3370 0001230  87.6239 272.4894 15.08844146 69165,6917.868,95.437,540.584,538.882,0.0
